{"type": "FeatureCollection", "features": [ {"type": "Feature", "properties": {"norad_id": 66642, "name": "STARLINK-35926", "group": "last-30-days", "lat": 5.836257160177333, "lon": 45.92660386224242, "alt_km": 323.18161383684037, "timestamp": "2025-12-03T22:42:31.477331+00:00", "meta": {"OBJECT_NAME": "STARLINK-35926", "OBJECT_ID": "2025-271AB", "EPOCH": "2025-12-02T16:00:03.000096", "MEAN_MOTION": 15.87106467, "ECCENTRICITY": 6.11e-05, "INCLINATION": 53.1568, "RA_OF_ASC_NODE": 236.7719, "ARG_OF_PERICENTER": 100.9606, "MEAN_ANOMALY": 327.7958, "EPHEMERIS_TYPE": 0, "CLASSIFICATION_TYPE": "U", "NORAD_CAT_ID": 66642, "ELEMENT_SET_NO": 999, "REV_AT_EPOCH": 238, "BSTAR": -0.0075605, "MEAN_MOTION_DOT": -0.01739522, "MEAN_MOTION_DDOT": 0}, "tle": {"line1": "1 66642U 25271AB  25336.66670139 -.01739522  00000+0 -75605-2 0  9993", "line2": "2 66642  53.1568 236.7719 0000611 100.9606 327.7958 15.87106467  2388"}}, "geometry": {"type": "Point", "coordinates": [45.92660386224242, 5.836257160177333]}}, {"type": "Feature", "properties": {"norad_id": 66643, "name": "STARLINK-35918", "group": "last-30-days", "lat": 9.15551580217806, "lon": 43.39021614022025, "alt_km": 322.42466334617166, "timestamp": "2025-12-03T22:42:31.477339+00:00", "meta": {"OBJECT_NAME": "STARLINK-35918", "OBJECT_ID": "2025-271AC", "EPOCH": "2025-12-02T16:00:03.000096", "MEAN_MOTION": 15.87051116, "ECCENTRICITY": 7.17e-05, "INCLINATION": 53.1571, "RA_OF_ASC_NODE": 236.7807, "ARG_OF_PERICENTER": 110.7411, "MEAN_ANOMALY": 313.9012, "EPHEMERIS_TYPE": 0, "CLASSIFICATION_TYPE": "U", "NORAD_CAT_ID": 66643, "ELEMENT_SET_NO": 999, "REV_AT_EPOCH": 262, "BSTAR": -0.0074303, "MEAN_MOTION_DOT": -0.01709685, "MEAN_MOTION_DDOT": 0}, "tle": {"line1": "1 66643U 25271AC  25336.66670139 -.01709685  00000+0 -74303-2 0  9995", "line2": "2 66643  53.1571 236.7807 0000717 110.7411 313.9012 15.87051116  2626"}}, "geometry": {"type": "Point", "coordinates": [43.39021614022025, 9.15551580217806]}}, {"type": "Feature", "properties": {"norad_id": 66644, "name": "STARLINK-35938", "group": "last-30-days", "lat": 7.499184983974853, "lon": 44.66179858009317, "alt_km": 322.7622759120959, "timestamp": "2025-12-03T22:42:31.477348+00:00", "meta": {"OBJECT_NAME": "STARLINK-35938", "OBJECT_ID": "2025-271AD", "EPOCH": "2025-12-02T16:00:03.000096", "MEAN_MOTION": 15.87075445, "ECCENTRICITY": 6.11e-05, "INCLINATION": 53.1569, "RA_OF_ASC_NODE": 236.776, "ARG_OF_PERICENTER": 110.5005, "MEAN_ANOMALY": 316.195, "EPHEMERIS_TYPE": 0, "CLASSIFICATION_TYPE": "U", "NORAD_CAT_ID": 66644, "ELEMENT_SET_NO": 999, "REV_AT_EPOCH": 262, "BSTAR": -0.0074831, "MEAN_MOTION_DOT": -0.01721879, "MEAN_MOTION_DDOT": 0}, "tle": {"line1": "1 66644U 25271AD  25336.66670139 -.01721879  00000+0 -74831-2 0  9991", "line2": "2 66644  53.1569 236.7760 0000611 110.5005 316.1950 15.87075445  2629"}}, "geometry": {"type": "Point", "coordinates": [44.66179858009317, 7.499184983974853]}}, {"type": "Feature", "properties": {"norad_id": 66645, "name": "SHENZHOU-22", "group": "last-30-days", "lat": 29.016703700902923, "lon": 108.98122049064496, "alt_km": 386.09031028347727, "timestamp": "2025-12-03T22:42:31.477357+00:00", "meta": {"OBJECT_NAME": "SHENZHOU-22", "OBJECT_ID": "2025-272A", "EPOCH": "2025-12-03T08:40:01.753824", "MEAN_MOTION": 15.58580261, "ECCENTRICITY": 0.00100709, "INCLINATION": 41.4677, "RA_OF_ASC_NODE": 73.6192, "ARG_OF_PERICENTER": 319.5464, "MEAN_ANOMALY": 40.4624, "EPHEMERIS_TYPE": 0, "CLASSIFICATION_TYPE": "U", "NORAD_CAT_ID": 66645, "ELEMENT_SET_NO": 999, "REV_AT_EPOCH": 26257, "BSTAR": 0.00034171532, "MEAN_MOTION_DOT": 0.00026743, "MEAN_MOTION_DDOT": 0}, "tle": {"line1": "1 66645U 25272A   25337.36113141  .00026743  00000+0  34172-3 0  9996", "line2": "2 66645  41.4677  73.6192 0010070 319.5464  40.4624 15.58580261262579"}}, "geometry": {"type": "Point", "coordinates": [108.98122049064496, 29.016703700902923]}}, {"type": "Feature", "properties": {"norad_id": 66646, "name": "CZ-2F R/B", "group": "last-30-days", "lat": 35.12512169481336, "lon": 119.14386178565901, "alt_km": 288.7795883057861, "timestamp": "2025-12-03T22:42:31.477368+00:00", "meta": {"OBJECT_NAME": "CZ-2F R/B", "OBJECT_ID": "2025-272B", "EPOCH": "2025-11-26T11:17:54.506400", "MEAN_MOTION": 16.01945612, "ECCENTRICITY": 0.01210796, "INCLINATION": 41.4431, "RA_OF_ASC_NODE": 114.9009, "ARG_OF_PERICENTER": 133.7676, "MEAN_ANOMALY": 227.3272, "EPHEMERIS_TYPE": 0, "CLASSIFICATION_TYPE": "U", "NORAD_CAT_ID": 66646, "ELEMENT_SET_NO": 999, "REV_AT_EPOCH": 21, "BSTAR": 0.00029319366, "MEAN_MOTION_DOT": 0.00449059, "MEAN_MOTION_DDOT": 7.567612e-06}, "tle": {"line1": "1 66646U 25272B   25330.47076975  .00449059  75676-5  29319-3 0  9998", "line2": "2 66646  41.4431 114.9009 0121079 133.7676 227.3272 16.01945612   217"}}, "geometry": {"type": "Point", "coordinates": [119.14386178565901, 35.12512169481336]}}, {"type": "Feature", "properties": {"norad_id": 66647, "name": "COSMOS 2597 (RODNIK-S 22)", "group": "last-30-days", "lat": 51.340458415560335, "lon": -58.609920559421205, "alt_km": 1494.8452761458875, "timestamp": "2025-12-03T22:42:31.477379+00:00", "meta": {"OBJECT_NAME": "COSMOS 2597 (RODNIK-S 22)", "OBJECT_ID": "2025-273A", "EPOCH": "2025-12-03T12:45:47.184768", "MEAN_MOTION": 12.41951055, "ECCENTRICITY": 0.0008136, "INCLINATION": 82.4981, "RA_OF_ASC_NODE": 292.1677, "ARG_OF_PERICENTER": 310.75, "MEAN_ANOMALY": 49.2872, "EPHEMERIS_TYPE": 0, "CLASSIFICATION_TYPE": "U", "NORAD_CAT_ID": 66647, "ELEMENT_SET_NO": 999, "REV_AT_EPOCH": 99, "BSTAR": -1.0431e-05, "MEAN_MOTION_DOT": 8e-08, "MEAN_MOTION_DDOT": 0}, "tle": {"line1": "1 66647U 25273A   25337.53179612  .00000008  00000+0 -10431-4 0  9993", "line2": "2 66647  82.4981 292.1677 0008136 310.7500  49.2872 12.41951055   994"}}, "geometry": {"type": "Point", "coordinates": [-58.609920559421205, 51.340458415560335]}}, {"type": "Feature", "properties": {"norad_id": 66648, "name": "COSMOS 2598 (RODNIK-S 23)", "group": "last-30-days", "lat": 60.104607631632064, "lon": -54.84293840041923, "alt_km": 1494.666528547782, "timestamp": "2025-12-03T22:42:31.477388+00:00", "meta": {"OBJECT_NAME": "COSMOS 2598 (RODNIK-S 23)", "OBJECT_ID": "2025-273B", "EPOCH": "2025-12-03T12:43:01.481664", "MEAN_MOTION": 12.42252997, "ECCENTRICITY": 0.0008222, "INCLINATION": 82.5023, "RA_OF_ASC_NODE": 292.1747, "ARG_OF_PERICENTER": 299.3441, "MEAN_ANOMALY": 60.6816, "EPHEMERIS_TYPE": 0, "CLASSIFICATION_TYPE": "U", "NORAD_CAT_ID": 66648, "ELEMENT_SET_NO": 999, "REV_AT_EPOCH": 99, "BSTAR": -0.00010066, "MEAN_MOTION_DOT": -4e-08, "MEAN_MOTION_DDOT": 0}, "tle": {"line1": "1 66648U 25273B   25337.52987826 -.00000004  00000+0 -10066-3 0  9997", "line2": "2 66648  82.5023 292.1747 0008222 299.3441  60.6816 12.42252997   998"}}, "geometry": {"type": "Point", "coordinates": [-54.84293840041923, 60.104607631632064]}}, {"type": "Feature", "properties": {"norad_id": 66649, "name": "COSMOS 2599 (RODNIK-S 24)", "group": "last-30-days", "lat": 43.158719121422884, "lon": -60.985158964732726, "alt_km": 1495.0545126992765, "timestamp": "2025-12-03T22:42:31.477397+00:00", "meta": {"OBJECT_NAME": "COSMOS 2599 (RODNIK-S 24)", "OBJECT_ID": "2025-273C", "EPOCH": "2025-12-03T12:48:20.460960", "MEAN_MOTION": 12.41671796, "ECCENTRICITY": 0.0008359, "INCLINATION": 82.5022, "RA_OF_ASC_NODE": 292.1777, "ARG_OF_PERICENTER": 321.044, "MEAN_ANOMALY": 39.0036, "EPHEMERIS_TYPE": 0, "CLASSIFICATION_TYPE": "U", "NORAD_CAT_ID": 66649, "ELEMENT_SET_NO": 999, "REV_AT_EPOCH": 99, "BSTAR": -3.0113e-05, "MEAN_MOTION_DOT": 6e-08, "MEAN_MOTION_DDOT": 0}, "tle": {"line1": "1 66649U 25273C   25337.53357015  .00000006  00000+0 -30113-4 0  9997", "line2": "2 66649  82.5022 292.1777 0008359 321.0440  39.0036 12.41671796   999"}}, "geometry": {"type": "Point", "coordinates": [-60.985158964732726, 43.158719121422884]}}, {"type": "Feature", "properties": {"norad_id": 66650, "name": "2025-274A", "group": "last-30-days", "lat": -77.85598383974259, "lon": 46.10441261047021, "alt_km": 593.6764118400397, "timestamp": "2025-12-03T22:42:31.477406+00:00", "meta": {"OBJECT_NAME": "2025-274A", "OBJECT_ID": "2025-274A", "EPOCH": "2025-12-03T08:39:47.382048", "MEAN_MOTION": 14.91607903, "ECCENTRICITY": 0.0010423, "INCLINATION": 97.7383, "RA_OF_ASC_NODE": 264.7216, "ARG_OF_PERICENTER": 287.7006, "MEAN_ANOMALY": 72.3075, "EPHEMERIS_TYPE": 0, "CLASSIFICATION_TYPE": "U", "NORAD_CAT_ID": 66650, "ELEMENT_SET_NO": 999, "REV_AT_EPOCH": 100, "BSTAR": 0.00030108, "MEAN_MOTION_DOT": 2.969e-05, "MEAN_MOTION_DDOT": 0}, "tle": {"line1": "1 66650U 25274A   25337.36096507  .00002969  00000+0  30108-3 0  9999", "line2": "2 66650  97.7383 264.7216 0010423 287.7006  72.3075 14.91607903  1005"}}, "geometry": {"type": "Point", "coordinates": [46.10441261047021, -77.85598383974259]}}, {"type": "Feature", "properties": {"norad_id": 66651, "name": "2025-274B", "group": "last-30-days", "lat": -79.00656340023306, "lon": 40.87533733869172, "alt_km": 593.147287093374, "timestamp": "2025-12-03T22:42:31.477417+00:00", "meta": {"OBJECT_NAME": "2025-274B", "OBJECT_ID": "2025-274B", "EPOCH": "2025-12-03T08:39:24.752160", "MEAN_MOTION": 14.91679887, "ECCENTRICITY": 0.0010726, "INCLINATION": 97.7377, "RA_OF_ASC_NODE": 264.7215, "ARG_OF_PERICENTER": 287.2138, "MEAN_ANOMALY": 72.7907, "EPHEMERIS_TYPE": 0, "CLASSIFICATION_TYPE": "U", "NORAD_CAT_ID": 66651, "ELEMENT_SET_NO": 999, "REV_AT_EPOCH": 100, "BSTAR": 0.00056643, "MEAN_MOTION_DOT": 5.648e-05, "MEAN_MOTION_DDOT": 0}, "tle": {"line1": "1 66651U 25274B   25337.36070315  .00005648  00000+0  56643-3 0  9998", "line2": "2 66651  97.7377 264.7215 0010726 287.2138  72.7907 14.91679887  1003"}}, "geometry": {"type": "Point", "coordinates": [40.87533733869172, -79.00656340023306]}}]}